SL-8 R/B                
1 19257U 88053B   26097.15157279  .00000262  00000+0  93390-4 0  9996
2 19257  74.0473  59.9977 0021277 235.3490 134.4551 14.38935396980698
COSMOS 1975             
1 19573U 88093A   26097.01032821  .00006356  00000+0  22756-3 0  9998
2 19573  82.5165  89.2393 0013296  74.8218 285.4491 15.28484981 23737
SL-14 R/B               
1 19574U 88093B   26097.23618096  .00000591  00000+0  65196-4 0  9998
2 19574  82.5346  15.2525 0019406 306.4916 205.6249 14.85692475  5256
SL-16 R/B               
1 19650U 88102B   26097.15884440  .00000303  00000+0  17706-3 0  9997
2 19650  70.9975  91.5926 0015552 320.2811  39.7172 14.16157201930927
INTERCOSMOS 24          
1 20261U 89080A   26097.23969716  .00000361  00000+0  10512-3 0  9994
2 20261  82.6016  85.8070 1187066 226.5008 123.1298 12.59592804670392
SL-14 R/B               
1 20262U 89080C   26097.20188894  .00000363  00000+0  99687-4 0  9995
2 20262  82.5941 154.8905 1230935 119.6119 253.3295 12.50520785663713
DELTA 1 R/B             
1 20323U 89089B   26097.10753378  .00000374  00000+0  10108-3 0  9998
2 20323  97.0683 300.0213 0069941  33.8210 326.7420 14.50688183899857
ARIANE 40 R/B           
1 20443U 90005H   26097.16571573  .00000326  00000+0  11698-3 0  9994
2 20443  98.3026 156.9703 0011328 117.0840 243.1506 14.39890938896907
DELTA 2 R/B(1)          
1 20453U 90008B   26097.02033902  .00077159  00000+0  79281-3 0  9992
2 20453  35.6039 348.3940 0076103 165.7116 194.5795 15.60036769930552
COSMOS 2058             
1 20465U 90010A   26097.24793983  .00004684  00000+0  27400-3 0  9993
2 20465  82.4727  19.2909 0008372 228.2430 131.8085 15.11615624946557
SL-14 R/B               
1 20466U 90010B   26097.14914115  .00000631  00000+0  73484-4 0  9997
2 20466  82.5011 240.6497 0019244 202.1730 157.8655 14.83599298932700
SL-14 R/B               
1 20511U 90018B   26096.99171200  .00000520  00000+0  62216-4 0  9996
2 20511  82.5246 196.6436 0016194   4.1365 355.9980 14.82174805926773
HST                     
1 20580U 90037B   26096.99605422  .00008574  00000+0  27928-3 0  9998
2 20580  28.4724 206.8372 0002334  83.4383 276.6479 15.29965380777654
SL-16 R/B               
1 20625U 90046B   26097.11526741 -.00000066  00000+0 -94456-5 0  9991
2 20625  70.9992 238.2098 0016616 262.8132  97.1102 14.15019393852415
COSMOS 2084             
1 20663U 90055A   26096.81376569  .00003342  00000+0  24260-3 0  9992
2 20663  62.7901 239.6411 0012536 199.7781 160.2835 15.05831745940556
SL-6 R/B(2)             
1 20666U 90055D   26097.16757755  .00001872  00000+0  14918-3 0  9999
2 20666  62.7823 156.9976 0029451 353.3307   6.7396 15.03739707942477
SL-8 R/B                
1 20775U 90078B   26096.85714720  .00013000  00000+0  38474-3 0  9994
2 20775  82.9046 225.9589 0357203 278.9011  77.1934 14.89901838813497
