[{"OBJECT_NAME":"SL-8 R/B","OBJECT_ID":"1988-053B","EPOCH":"2026-04-07T03:38:15.889056","MEAN_MOTION":14.38935396,"ECCENTRICITY":0.00212772,"INCLINATION":74.0473,"RA_OF_ASC_NODE":59.9977,"ARG_OF_PERICENTER":235.349,"MEAN_ANOMALY":134.4551,"EPHEMERIS_TYPE":0,"CLASSIFICATION_TYPE":"U","NORAD_CAT_ID":19257,"ELEMENT_SET_NO":999,"REV_AT_EPOCH":98069,"BSTAR":9.338988e-5,"MEAN_MOTION_DOT":2.62e-6,"MEAN_MOTION_DDOT":0},{"OBJECT_NAME":"COSMOS 1975","OBJECT_ID":"1988-093A","EPOCH":"2026-04-07T00:14:52.357344","MEAN_MOTION":15.28484981,"ECCENTRICITY":0.0013296,"INCLINATION":82.5165,"RA_OF_ASC_NODE":89.2393,"ARG_OF_PERICENTER":74.8218,"MEAN_ANOMALY":285.4491,"EPHEMERIS_TYPE":0,"CLASSIFICATION_TYPE":"U","NORAD_CAT_ID":19573,"ELEMENT_SET_NO":999,"REV_AT_EPOCH":2373,"BSTAR":0.00022756133,"MEAN_MOTION_DOT":6.356e-5,"MEAN_MOTION_DDOT":0},{"OBJECT_NAME":"SL-14 R/B","OBJECT_ID":"1988-093B","EPOCH":"2026-04-07T05:40:06.034944","MEAN_MOTION":14.85692475,"ECCENTRICITY":0.00194061,"INCLINATION":82.5346,"RA_OF_ASC_NODE":15.2525,"ARG_OF_PERICENTER":306.4916,"MEAN_ANOMALY":205.6249,"EPHEMERIS_TYPE":0,"CLASSIFICATION_TYPE":"U","NORAD_CAT_ID":19574,"ELEMENT_SET_NO":999,"REV_AT_EPOCH":525,"BSTAR":6.519648e-5,"MEAN_MOTION_DOT":5.91e-6,"MEAN_MOTION_DDOT":0},{"OBJECT_NAME":"SL-16 R/B","OBJECT_ID":"1988-102B","EPOCH":"2026-04-07T03:48:44.156160","MEAN_MOTION":14.16157201,"ECCENTRICITY":0.00155523,"INCLINATION":70.9975,"RA_OF_ASC_NODE":91.5926,"ARG_OF_PERICENTER":320.2811,"MEAN_ANOMALY":39.7172,"EPHEMERIS_TYPE":0,"CLASSIFICATION_TYPE":"U","NORAD_CAT_ID":19650,"ELEMENT_SET_NO":999,"REV_AT_EPOCH":93092,"BSTAR":0.00017706013,"MEAN_MOTION_DOT":3.03e-6,"MEAN_MOTION_DDOT":0},{"OBJECT_NAME":"INTERCOSMOS 24","OBJECT_ID":"1989-080A","EPOCH":"2026-04-07T05:45:09.834624","MEAN_MOTION":12.59592804,"ECCENTRICITY":0.11870663,"INCLINATION":82.6016,"RA_OF_ASC_NODE":85.807,"ARG_OF_PERICENTER":226.5008,"MEAN_ANOMALY":123.1298,"EPHEMERIS_TYPE":0,"CLASSIFICATION_TYPE":"U","NORAD_CAT_ID":20261,"ELEMENT_SET_NO":999,"REV_AT_EPOCH":67039,"BSTAR":0.00010511976,"MEAN_MOTION_DOT":3.61e-6,"MEAN_MOTION_DDOT":0},{"OBJECT_NAME":"SL-14 R/B","OBJECT_ID":"1989-080C","EPOCH":"2026-04-07T04:50:43.204416","MEAN_MOTION":12.50520785,"ECCENTRICITY":0.1230935,"INCLINATION":82.5941,"RA_OF_ASC_NODE":154.8905,"ARG_OF_PERICENTER":119.6119,"MEAN_ANOMALY":253.3295,"EPHEMERIS_TYPE":0,"CLASSIFICATION_TYPE":"U","NORAD_CAT_ID":20262,"ELEMENT_SET_NO":999,"REV_AT_EPOCH":66371,"BSTAR":9.9686622e-5,"MEAN_MOTION_DOT":3.63e-6,"MEAN_MOTION_DDOT":0},{"OBJECT_NAME":"DELTA 1 R/B","OBJECT_ID":"1989-089B","EPOCH":"2026-04-07T02:34:50.918592","MEAN_MOTION":14.50688183,"ECCENTRICITY":0.00699413,"INCLINATION":97.0683,"RA_OF_ASC_NODE":300.0213,"ARG_OF_PERICENTER":33.821,"MEAN_ANOMALY":326.742,"EPHEMERIS_TYPE":0,"CLASSIFICATION_TYPE":"U","NORAD_CAT_ID":20323,"ELEMENT_SET_NO":999,"REV_AT_EPOCH":89985,"BSTAR":0.0001010811,"MEAN_MOTION_DOT":3.74e-6,"MEAN_MOTION_DDOT":0},{"OBJECT_NAME":"ARIANE 40 R/B","OBJECT_ID":"1990-005H","EPOCH":"2026-04-07T03:58:37.839072","MEAN_MOTION":14.39890938,"ECCENTRICITY":0.00113282,"INCLINATION":98.3026,"RA_OF_ASC_NODE":156.9703,"ARG_OF_PERICENTER":117.084,"MEAN_ANOMALY":243.1506,"EPHEMERIS_TYPE":0,"CLASSIFICATION_TYPE":"U","NORAD_CAT_ID":20443,"ELEMENT_SET_NO":999,"REV_AT_EPOCH":89690,"BSTAR":0.00011697723,"MEAN_MOTION_DOT":3.26e-6,"MEAN_MOTION_DDOT":0},{"OBJECT_NAME":"DELTA 2 R/B(1)","OBJECT_ID":"1990-008B","EPOCH":"2026-04-07T00:29:17.291328","MEAN_MOTION":15.60036769,"ECCENTRICITY":0.00761034,"INCLINATION":35.6039,"RA_OF_ASC_NODE":348.394,"ARG_OF_PERICENTER":165.7116,"MEAN_ANOMALY":194.5795,"EPHEMERIS_TYPE":0,"CLASSIFICATION_TYPE":"U","NORAD_CAT_ID":20453,"ELEMENT_SET_NO":999,"REV_AT_EPOCH":93055,"BSTAR":0.00079280777,"MEAN_MOTION_DOT":0.00077159,"MEAN_MOTION_DDOT":0},{"OBJECT_NAME":"COSMOS 2058","OBJECT_ID":"1990-010A","EPOCH":"2026-04-07T05:57:02.001312","MEAN_MOTION":15.11615624,"ECCENTRICITY":0.00083728,"INCLINATION":82.4727,"RA_OF_ASC_NODE":19.2909,"ARG_OF_PERICENTER":228.243,"MEAN_ANOMALY":131.8085,"EPHEMERIS_TYPE":0,"CLASSIFICATION_TYPE":"U","NORAD_CAT_ID":20465,"ELEMENT_SET_NO":999,"REV_AT_EPOCH":94655,"BSTAR":0.00027399764,"MEAN_MOTION_DOT":4.684e-5,"MEAN_MOTION_DDOT":0},{"OBJECT_NAME":"SL-14 R/B","OBJECT_ID":"1990-010B","EPOCH":"2026-04-07T03:34:45.795360","MEAN_MOTION":14.83599298,"ECCENTRICITY":0.00192448,"INCLINATION":82.5011,"RA_OF_ASC_NODE":240.6497,"ARG_OF_PERICENTER":202.173,"MEAN_ANOMALY":157.8655,"EPHEMERIS_TYPE":0,"CLASSIFICATION_TYPE":"U","NORAD_CAT_ID":20466,"ELEMENT_SET_NO":999,"REV_AT_EPOCH":93270,"BSTAR":7.3483705e-5,"MEAN_MOTION_DOT":6.31e-6,"MEAN_MOTION_DDOT":0},{"OBJECT_NAME":"SL-14 R/B","OBJECT_ID":"1990-018B","EPOCH":"2026-04-06T23:48:03.916800","MEAN_MOTION":14.82174805,"ECCENTRICITY":0.00161947,"INCLINATION":82.5246,"RA_OF_ASC_NODE":196.6436,"ARG_OF_PERICENTER":4.1365,"MEAN_ANOMALY":355.998,"EPHEMERIS_TYPE":0,"CLASSIFICATION_TYPE":"U","NORAD_CAT_ID":20511,"ELEMENT_SET_NO":999,"REV_AT_EPOCH":92677,"BSTAR":6.2215855e-5,"MEAN_MOTION_DOT":5.2e-6,"MEAN_MOTION_DDOT":0},{"OBJECT_NAME":"HST","OBJECT_ID":"1990-037B","EPOCH":"2026-04-06T23:54:19.084608","MEAN_MOTION":15.2996538,"ECCENTRICITY":0.00023341,"INCLINATION":28.4724,"RA_OF_ASC_NODE":206.8372,"ARG_OF_PERICENTER":83.4383,"MEAN_ANOMALY":276.6479,"EPHEMERIS_TYPE":0,"CLASSIFICATION_TYPE":"U","NORAD_CAT_ID":20580,"ELEMENT_SET_NO":999,"REV_AT_EPOCH":77765,"BSTAR":0.00027928122,"MEAN_MOTION_DOT":8.574e-5,"MEAN_MOTION_DDOT":0},{"OBJECT_NAME":"SL-16 R/B","OBJECT_ID":"1990-046B","EPOCH":"2026-04-07T02:45:59.104224","MEAN_MOTION":14.15019393,"ECCENTRICITY":0.00166166,"INCLINATION":70.9992,"RA_OF_ASC_NODE":238.2098,"ARG_OF_PERICENTER":262.8132,"MEAN_ANOMALY":97.1102,"EPHEMERIS_TYPE":0,"CLASSIFICATION_TYPE":"U","NORAD_CAT_ID":20625,"ELEMENT_SET_NO":999,"REV_AT_EPOCH":85241,"BSTAR":-9.445631e-6,"MEAN_MOTION_DOT":-6.6e-7,"MEAN_MOTION_DDOT":0},{"OBJECT_NAME":"COSMOS 2084","OBJECT_ID":"1990-055A","EPOCH":"2026-04-06T19:31:49.355616","MEAN_MOTION":15.05831745,"ECCENTRICITY":0.00125364,"INCLINATION":62.7901,"RA_OF_ASC_NODE":239.6411,"ARG_OF_PERICENTER":199.7781,"MEAN_ANOMALY":160.2835,"EPHEMERIS_TYPE":0,"CLASSIFICATION_TYPE":"U","NORAD_CAT_ID":20663,"ELEMENT_SET_NO":999,"REV_AT_EPOCH":94055,"BSTAR":0.00024259505,"MEAN_MOTION_DOT":3.342e-5,"MEAN_MOTION_DDOT":0},{"OBJECT_NAME":"SL-6 R/B(2)","OBJECT_ID":"1990-055D","EPOCH":"2026-04-07T04:01:18.700320","MEAN_MOTION":15.03739707,"ECCENTRICITY":0.00294519,"INCLINATION":62.7823,"RA_OF_ASC_NODE":156.9976,"ARG_OF_PERICENTER":353.3307,"MEAN_ANOMALY":6.7396,"EPHEMERIS_TYPE":0,"CLASSIFICATION_TYPE":"U","NORAD_CAT_ID":20666,"ELEMENT_SET_NO":999,"REV_AT_EPOCH":94247,"BSTAR":0.00014918352,"MEAN_MOTION_DOT":1.872e-5,"MEAN_MOTION_DDOT":0},{"OBJECT_NAME":"SL-8 R/B","OBJECT_ID":"1990-078B","EPOCH":"2026-04-06T20:34:17.518080","MEAN_MOTION":14.89901838,"ECCENTRICITY":0.03572033,"INCLINATION":82.9046,"RA_OF_ASC_NODE":225.9589,"ARG_OF_PERICENTER":278.9011,"MEAN_ANOMALY":77.1934,"EPHEMERIS_TYPE":0,"CLASSIFICATION_TYPE":"U","NORAD_CAT_ID":20775,"ELEMENT_SET_NO":999,"REV_AT_EPOCH":81349,"BSTAR":0.00038474059,"MEAN_MOTION_DOT":0.00013,"MEAN_MOTION_DDOT":0}]
